OBJECT C                
1 57582U 23117C   24252.16639667  .00018074  00000+0  88926-3 0  9995
2 57582  97.4793 323.1679 0010210  12.9157 347.2336 15.18015077 59768
